{
"type": "FeatureCollection",
"name": "chinatown_kml_original",
"crs": { "type": "name", "properties": { "name": "urn:ogc:def:crs:OGC:1.3:CRS84" } },
"features": [
{ "type": "Feature", "properties": { }, "geometry": { "type": "Polygon", "coordinates": [ [ [ -0.133000679846381, 51.511448657885268 ], [ -0.132102412083129, 51.510330961119422 ], [ -0.131552403148862, 51.510436630893651 ], [ -0.131868436442297, 51.511003367259377 ], [ -0.130480608044484, 51.511476361274198 ], [ -0.130313568583971, 51.511538735085722 ], [ -0.129757825337119, 51.511665054520712 ], [ -0.129410454263883, 51.511703519186447 ], [ -0.128459694483898, 51.511659284577533 ], [ -0.128460657122956, 51.511884173345429 ], [ -0.129420076511472, 51.511982340998728 ], [ -0.129583559833811, 51.512355603283027 ], [ -0.130003610405237, 51.512262321761291 ], [ -0.130235778631991, 51.512544050755331 ], [ -0.131317609912819, 51.512205677376087 ], [ -0.13231376069587, 51.511793386428103 ], [ -0.133000679846381, 51.511448657885268 ] ] ] } }
]
}
