{
"type": "FeatureCollection",
"name": "chinatown_kml_50m_buffer",
"crs": { "type": "name", "properties": { "name": "urn:ogc:def:crs:OGC:1.3:CRS84" } },
"features": [
{ "type": "Feature", "properties": { }, "geometry": { "type": "Polygon", "coordinates": [ [ [ -0.133282621757612, 51.511666261565345 ], [ -0.132595702607101, 51.512010988461562 ], [ -0.132579373437979, 51.512018805430195 ], [ -0.132562485500089, 51.51202614818542 ], [ -0.131566334717038, 51.512438437026844 ], [ -0.131543234838806, 51.512447381774805 ], [ -0.131519307160432, 51.512455439729031 ], [ -0.130437475879604, 51.512793811253097 ], [ -0.130416307899954, 51.512800007783859 ], [ -0.13039465023912, 51.512805510038696 ], [ -0.130372561642971, 51.512810303093126 ], [ -0.13035010202628, 51.512814373946348 ], [ -0.130327332310202, 51.512817711556444 ], [ -0.13030431425703, 51.512820306870402 ], [ -0.130281110302667, 51.512822152848628 ], [ -0.130257783387265, 51.512823244484039 ], [ -0.130234396784508, 51.512823578815656 ], [ -0.130211013929978, 51.512823154936626 ], [ -0.13018769824909, 51.512821973996694 ], [ -0.130164512985056, 51.51282003919907 ], [ -0.13014152102733, 51.512817355791746 ], [ -0.130118784741032, 51.512813931053266 ], [ -0.130096365797776, 51.512809774272995 ], [ -0.130074325008394, 51.512804896725889 ], [ -0.130052722157983, 51.512799311641935 ], [ -0.13003161584374, 51.512793034170308 ], [ -0.130011063316025, 51.51278608133817 ], [ -0.129991120323059, 51.512778472004648 ], [ -0.129971840959721, 51.512770226809508 ], [ -0.129953277520807, 51.512761368117324 ], [ -0.129935480359187, 51.512751919956713 ], [ -0.129918497749224, 51.512741907955238 ], [ -0.129902375755827, 51.512731359269821 ], [ -0.129887158109506, 51.512720302513181 ], [ -0.129872886087752, 51.512708767676095 ], [ -0.129859598403071, 51.512696786046213 ], [ -0.12984733109798, 51.512684390123056 ], [ -0.129836117447241, 51.512671613529939 ], [ -0.129783661401623, 51.512607960064443 ], [ -0.129734510648222, 51.512618875003604 ], [ -0.129711826969228, 51.512623493384851 ], [ -0.129688781128074, 51.51262735538041 ], [ -0.129665438194672, 51.512630450086142 ], [ -0.12964186407778, 51.512632768764313 ], [ -0.129618125338898, 51.512634304868243 ], [ -0.129594289004338, 51.51263505406083 ], [ -0.129570422375972, 51.512635014226767 ], [ -0.12954659284121, 51.512634185478525 ], [ -0.129522867682723, 51.512632570156015 ], [ -0.12949931388848, 51.512630172820046 ], [ -0.129475997962602, 51.512627000239341 ], [ -0.129452985737587, 51.512623061371556 ], [ -0.129430342188437, 51.512618367337843 ], [ -0.129408131249195, 51.512612931391594 ], [ -0.129386415632431, 51.512606768880921 ], [ -0.129365256652175, 51.512599897205405 ], [ -0.129344714050791, 51.512592335766875 ], [ -0.129324845830298, 51.512584105914705 ], [ -0.129305708088603, 51.512575230885552 ], [ -0.129287354861105, 51.512565735737667 ], [ -0.129269837968128, 51.512555647280202 ], [ -0.129253206868607, 51.512544993997537 ], [ -0.129237508520439, 51.512533805968836 ], [ -0.129222787247898, 51.512522114783074 ], [ -0.129209084616487, 51.512509953449964 ], [ -0.129196439315575, 51.512497356306639 ], [ -0.12918488704916, 51.512484358920773 ], [ -0.129174460435058, 51.512470997990192 ], [ -0.129165188912806, 51.51245731123911 ], [ -0.129157098660539, 51.512443337311815 ], [ -0.12915021252108, 51.51242911566343 ], [ -0.129062585721203, 51.51222904837789 ], [ -0.128387790055685, 51.512160003778817 ], [ -0.128364832934443, 51.512157271260975 ], [ -0.128342135299566, 51.51215379921176 ], [ -0.128319758614937, 51.512149597033108 ], [ -0.128297763475326, 51.512144676104093 ], [ -0.128276209442299, 51.512139049750061 ], [ -0.128255154882932, 51.512132733206599 ], [ -0.128234656811755, 51.51212574357826 ], [ -0.128214770736361, 51.512118099792247 ], [ -0.128195550507092, 51.512109822547174 ], [ -0.128177048171219, 51.512100934256992 ], [ -0.128159313831998, 51.512091458990334 ], [ -0.128142395512994, 51.512081422405309 ], [ -0.128126339028038, 51.512070851680051 ], [ -0.128111187857163, 51.51205977543912 ], [ -0.128096983028865, 51.512048223675968 ], [ -0.128083763008997, 51.512036227671757 ], [ -0.12807156359661, 51.512023819910645 ], [ -0.128060417827006, 51.512011033991797 ], [ -0.128050355882287, 51.511997904538426 ], [ -0.128041405009616, 51.511984467104085 ], [ -0.128033589447441, 51.511970758076281 ], [ -0.128026930359851, 51.511956814578078 ], [ -0.128021445779271, 51.511942674367418 ], [ -0.128017150557628, 51.511928375735053 ], [ -0.128014056326134, 51.511913957400694 ], [ -0.128012171463789, 51.51189945840828 ], [ -0.128011501074692, 51.511884918020165 ], [ -0.128010538435634, 51.511660029255957 ], [ -0.128011109448722, 51.511645174067056 ], [ -0.128012948040746, 51.511630358745784 ], [ -0.128016049016347, 51.511615625156253 ], [ -0.128020403613015, 51.511601014931671 ], [ -0.128025999525845, 51.511586569356695 ], [ -0.128032820942317, 51.511572329250733 ], [ -0.128040848586966, 51.511558334852666 ], [ -0.12805005977586, 51.511544625707089 ], [ -0.128060428480692, 51.511531240552578 ], [ -0.12807192540233, 51.511518217212235 ], [ -0.12808451805361, 51.511505592486778 ], [ -0.128098170851135, 51.511493402050611 ], [ -0.128112845215822, 51.511481680350919 ], [ -0.128128499681922, 51.511470460510409 ], [ -0.128145090014184, 51.511459774233671 ], [ -0.128162569332853, 51.511449651717598 ], [ -0.128180888246144, 51.511440121566046 ], [ -0.128199994989805, 51.511431210708992 ], [ -0.128219835573391, 51.511422944326462 ], [ -0.128240353932825, 51.511415345777358 ], [ -0.128261492088821, 51.511408436533458 ], [ -0.128283190310716, 51.511402236118691 ], [ -0.128305387285255, 51.511396762054048 ], [ -0.128328020289842, 51.511392029808007 ], [ -0.128351025369782, 51.511388052752842 ], [ -0.128374337518993, 51.511384842126802 ], [ -0.128397890863702, 51.511382407002415 ], [ -0.128421618848581, 51.51138075426082 ], [ -0.12844545442482, 51.511379888572286 ], [ -0.12846933023958, 51.511379812383048 ], [ -0.128493178826323, 51.511380525908415 ], [ -0.12938749788977, 51.511422134838512 ], [ -0.129640555688772, 51.511394113384206 ], [ -0.130119228603764, 51.511285311270093 ], [ -0.130249521447602, 51.511236658662838 ], [ -0.130264871484722, 51.51123117979278 ], [ -0.131319583505938, 51.510871715656251 ], [ -0.131128073859676, 51.510528284977191 ], [ -0.13112101955, 51.510514491483747 ], [ -0.131115121954922, 51.510500489210393 ], [ -0.131110396888291, 51.510486315702714 ], [ -0.131106857019929, 51.510472008965507 ], [ -0.13110451184166, 51.510457607360841 ], [ -0.131103367641859, 51.510443149505193 ], [ -0.131103427488591, 51.510428674165908 ], [ -0.131104691221382, 51.510414220157251 ], [ -0.131107155451651, 51.510399826236309 ], [ -0.131110813571797, 51.510385530999145 ], [ -0.131115655772914, 51.510371372777179 ], [ -0.131121669071094, 51.510357389534498 ], [ -0.131128837342244, 51.510343618766029 ], [ -0.131137141365317, 51.510330097397024 ], [ -0.131146558873856, 51.510316861683968 ], [ -0.131157064615696, 51.510303947117478 ], [ -0.131168630420677, 51.510291388327033 ], [ -0.13118122527618, 51.510279218988138 ], [ -0.131194815410283, 51.510267471732085 ], [ -0.131209364382317, 51.510256178058349 ], [ -0.13122483318058, 51.510245368250239 ], [ -0.131241180326945, 51.510235071293543 ], [ -0.131258361988071, 51.51022531479898 ], [ -0.131276332092951, 51.510216124928021 ], [ -0.131295042456434, 51.51020752632278 ], [ -0.131314442908439, 51.51019954203997 ], [ -0.131334481428477, 51.510192193489011 ], [ -0.131355104285138, 51.510185500374661 ], [ -0.131376256180169, 51.510179480644183 ], [ -0.13139788039675, 51.510174150439163 ], [ -0.131419918951577, 51.510169524052323 ], [ -0.131969927885844, 51.510063853658558 ], [ -0.131992452980361, 51.510059922840362 ], [ -0.132015276362171, 51.510056727272683 ], [ -0.132038336118029, 51.510054275624285 ], [ -0.132061569693477, 51.510052574545924 ], [ -0.132084914062533, 51.510051628652207 ], [ -0.132108305898667, 51.510051440509123 ], [ -0.132131681746581, 51.510052010627049 ], [ -0.132154978194351, 51.510053337459411 ], [ -0.13217813204544, 51.510055417406811 ], [ -0.132201080490138, 51.510058244826872 ], [ -0.132223761275941, 51.51006181204945 ], [ -0.132246112876426, 51.510066109397563 ], [ -0.132268074658156, 51.510071125213514 ], [ -0.132289587045159, 51.510076845890623 ], [ -0.132310591680542, 51.510083255910075 ], [ -0.132331031584794, 51.510090337883064 ], [ -0.132350851310357, 51.510098072597913 ], [ -0.13236999709204, 51.51010643907226 ], [ -0.132388416992866, 51.510115414609935 ], [ -0.132406061044963, 51.510124974862535 ], [ -0.132422881385112, 51.510135093895514 ], [ -0.132438832384589, 51.510145744258473 ], [ -0.132453870772938, 51.510156897059709 ], [ -0.132467955755354, 51.510168522044523 ], [ -0.132481049123346, 51.51018058767734 ], [ -0.13249311535839, 51.510193061227262 ], [ -0.132504121728272, 51.510205908856804 ], [ -0.133402389491524, 51.511323608690631 ], [ -0.133412317535467, 51.511336811468439 ], [ -0.133421126205561, 51.511350318388708 ], [ -0.133428791548233, 51.511364092721557 ], [ -0.133435292718976, 51.511378097009967 ], [ -0.133440612039039, 51.511392293171617 ], [ -0.133444735043497, 51.511406642602502 ], [ -0.133447650520591, 51.511421106281794 ], [ -0.133449350542209, 51.511435644878077 ], [ -0.133449830485453, 51.511450218856218 ], [ -0.133449089045204, 51.511464788584924 ], [ -0.133447128237674, 51.511479314444479 ], [ -0.133443953394923, 51.511493756934527 ], [ -0.133439573150358, 51.511508076781432 ], [ -0.133433999415257, 51.511522235045106 ], [ -0.133427247346381, 51.511536193224892 ], [ -0.133419335304752, 51.511549913364263 ], [ -0.133410284805728, 51.511563358154021 ], [ -0.133400120460498, 51.511576491033786 ], [ -0.133388869909148, 51.511589276291346 ], [ -0.133376563745508, 51.511601679159817 ], [ -0.133363235433952, 51.511613665912193 ], [ -0.1333489212184, 51.511625203953024 ], [ -0.133333660023758, 51.511636261907036 ], [ -0.133317493350071, 51.511646809704523 ], [ -0.133300465159667, 51.51165681866302 ], [ -0.133282621757612, 51.511666261565345 ] ] ] } }
]
}
